{"type": "FeatureCollection", "features": [ {"type": "Feature", "properties": {"norad_id": 66911, "name": "1998-067XX", "group": "stations", "lat": -26.416556416521498, "lon": 88.54826514123276, "alt_km": 411.45113238953036, "timestamp": "2025-12-18T21:31:49.726254+00:00", "meta": {"OBJECT_NAME": "1998-067XX", "OBJECT_ID": "1998-067XX", "EPOCH": "2025-12-17T14:47:13.814304", "MEAN_MOTION": 15.52703134, "ECCENTRICITY": 0.00042191, "INCLINATION": 51.6305, "RA_OF_ASC_NODE": 118.1027, "ARG_OF_PERICENTER": 237.6725, "MEAN_ANOMALY": 122.3857, "EPHEMERIS_TYPE": 0, "CLASSIFICATION_TYPE": "U", "NORAD_CAT_ID": 66911, "ELEMENT_SET_NO": 999, "REV_AT_EPOCH": 236, "BSTAR": 0.00097424314, "MEAN_MOTION_DOT": 0.00061259, "MEAN_MOTION_DDOT": 0}, "tle": {"line1": "1 66911U 98067XX  25351.61613211  .00061259  00000+0  97424-3 0  9991", "line2": "2 66911  51.6305 118.1027 0004219 237.6725 122.3857 15.52703134  2363"}}, "geometry": {"type": "Point", "coordinates": [88.54826514123276, -26.416556416521498]}}, {"type": "Feature", "properties": {"norad_id": 66912, "name": "1998-067XY", "group": "stations", "lat": -50.241068583666525, "lon": 39.57801026036309, "alt_km": 413.7523409291525, "timestamp": "2025-12-18T21:31:49.726264+00:00", "meta": {"OBJECT_NAME": "1998-067XY", "OBJECT_ID": "1998-067XY", "EPOCH": "2025-12-17T14:57:17.442720", "MEAN_MOTION": 15.51610656, "ECCENTRICITY": 0.0004152, "INCLINATION": 51.6301, "RA_OF_ASC_NODE": 118.1487, "ARG_OF_PERICENTER": 250.0151, "MEAN_ANOMALY": 110.0391, "EPHEMERIS_TYPE": 0, "CLASSIFICATION_TYPE": "U", "NORAD_CAT_ID": 66912, "ELEMENT_SET_NO": 999, "REV_AT_EPOCH": 236, "BSTAR": 0.00073169198, "MEAN_MOTION_DOT": 0.00044013, "MEAN_MOTION_DDOT": 0}, "tle": {"line1": "1 66912U 98067XY  25351.62311855  .00044013  00000+0  73169-3 0  9991", "line2": "2 66912  51.6301 118.1487 0004152 250.0151 110.0391 15.51610656  2360"}}, "geometry": {"type": "Point", "coordinates": [39.57801026036309, -50.241068583666525]}}]}